Query,Country,Name,Phone,Website,Emails,Phones,LinkedIn,Twitter,Facebook,Instagram
health industry in united kingdom,kingdom,Direct Healthcare Group Ltd.,+44 800 043 0881,www.directhealthcaregroup.com,"info@directhealthcaregroup.com, pia.beck@directhealthcaregroup.com, marketing@directhealthcaregroup.com, ethos@directhealthcaregroup.com, rhys.donovan@directhealthcaregroup.com, smh@directhealthcaregroup.com, fornamn.efternamn@directhealthcaregroup.com, service.se@directhealthcaregroup.com, info.no@directhealthcaregroup.com, info.nl@directhealthcaregroup.com, jade.moss@directhealthcaregroup.com, service.dk@directhealthcaregroup.com, beck@directhealthcaregroup.com, sales@talleygroup.com, financesolutions@directhealthcaregroup.com, alison.mcgrath@directhealthcaregroup.com, mie.berthelsen@directhealthcaregroup.com, info@directhealthcareservices.com.au, henrik.jager.rasmussen@directhealthcaregroup.com, simone.kolbaek@directhealthcaregroup.com, accounts@directhealthcaregroup.com, order.se@directhealthcaregroup.com, info@medicatlantic.fr, info@kirtonhealthcare.co.uk, info@mercado.se, office@logicdata.at, info@carilex.de, info@directhealthcareservices.co.uk, info@haelvoet.be, order.se@directhealthcaregroup.se, info.se@directhealthcaregroup.se, office@romedic.com, contact@askle.com, abushby@omniamed.com, info.ls@handicare.com, sales@carilexmedical.com, sales@directhealthcareservices.co.uk, g.eichhober@ipf-ac.at, m.voit@ipf-ac.at, boomergo@hetnet.nl, sales@selecthealthcare.co.uk, kundeservice.no@mediq.com, info@ergolet.dk, info@ropox.dk, ethos@handicare.com, brothers@outlook.com, info@directhealthcareservices.com, info@nightingalebeds.co.uk, sales@sumed.co.uk, jacqui.fletcher@live.com, tqmuk@aol.com","0800212709, 610423852810, 4408000430881",https://www.linkedin.com/company/direct-healthcare-group,https://twitter.com/Direct_HG,https://www.facebook.com/directhealthcare24,https://www.instagram.com/DirectPTDX
health industry in united kingdom,kingdom,General Healthcare Ltd,+44 20 8848 7766,www.genhealthcare.co.uk,"support@genhealthcare.co.uk, b2b@genhealthcare.co.uk, recruitment@nugen-healthcare.co.uk","4402088487766, 07541546994",https://www.linkedin.com/company/new-gen-healthcare,https://twitter.com/Growth_Lending,https://www.facebook.com/GainHealthcareUK,https://www.instagram.com/joanna_bensz
health industry in united kingdom,kingdom,Harvest Healthcare Ltd,+44 1709 377172,harvesthealthcare.co.uk,"sales@harvesthealthcare.co.uk, enquiries@harvesthealthcare.co.uk, servicing@harvesthealthcare.co.uk, abby.shepherd@harvesthealthcare.co.uk, rental@harvesthealthcare.co.uk, technical@harvesthealthcare.co.uk, lynne.buchanan@harvesthealthcare.co.uk, head.property@advinia.com, hr@breezehealthcare.co.uk, info@tecfor-care.com","01709377172, 4401709377172, 01218281969",https://www.linkedin.com/company/harvest-healthcare-ltd,https://twitter.com/harvesthealthuk,https://www.facebook.com/groups/1469227833407666,https://www.instagram.com/harvesthealthcare
health industry in united kingdom,kingdom,Healthcare Conferences UK,+44 1932 429933,www.healthcareconferencesuk.co.uk,"jayne@hc-uk.org.uk, info@hc-uk.org.uk, carolyn@healthcareconferencesuk.co.uk, carolyn@hc-uk.org.uk, katym@hc-uk.org.uk, drmohamedarafaortho@gmail.com, mohamed.arafa@ldh.nhs.uk, liaisonmanagers@ombudsman.org.uk, jayne@hc-uk.org, sas@sst-institute.net, mohamed_arafa@med.menofia.edu, medicalinformation@advanzpharma.com, melissa.taylor@jpaget.nhs.uk, paul@beaux-arts.co.uk, info@lavendermedical.com, kim.okeeffe@nhs.net, rene.gray@jpaget.nhs.uk, jon.goldin@gosh.nhs, john.welch@nhs.net, aleksandra.howell@nhs.net, amit.arora@uhns.nhs.uk, j.c.wyatt@soton.ac.uk, tania@dataprivacysimplified.co.uk, bethanydeer@hotmail.com, munt12@aol.com, sarahjane@hc-uk.org.uk, kerry@hc-uk.org.uk, wounded.healer@nhs.net, emilyw@hc-uk.org.uk, hannah@mentalcapacitycat.co.uk, contact@drjongoldin.co.uk, pamela.permalloo-bass@southernhealth.nhs.uk, kathryn.parry2@nhs.net, healthinfluencing@ageuk.org.uk, louise.m.smith@esneft.nhs.uk, mohamed_arafa@med.menofia.edu.eg, safesurgeries@doctorsoftheworld.org.uk, drpgough@aol.com, glw958@gmail.com, tinawe.eclm@gmail.com",01932429933,https://www.linkedin.com/company/healthcare-conferences-uk-ltd,https://twitter.com/HCUK_Clare,https://www.facebook.com/HealthcareConferencesUK,https://www.instagram.com/healthcareconferencesuk
health industry in united kingdom,kingdom,Health Innovations Ltd,+44 1756 636615,healthinnovations.uk,"enquiries@healthinnovations.uk, sarah.oxtoby@healthinnovations.uk, julie.spedding@healthinnovations.uk, spedding@healthinnovations.uk, oxtoby@healthinnovations.uk, enquiries@hostilkley.co",4401756636615,https://www.linkedin.com/company/health-innovations-uk,https://twitter.com/health_inno,https://www.facebook.com/HealthInnovationsUK,https://www.instagram.com/healthinnovationsuk
health industry in united kingdom,kingdom,NorthWest EHealth Ltd,+44 161 672 5630,nweh.co.uk,"hello@nweh.co.uk, info@nweh.co.uk, sue.d.collier@gsk.com",01616725630,https://www.linkedin.com/company/nweh,https://twitter.com/NWEHealth,https://www.facebook.com/cartridges4charity,https://www.instagram.com/nhse_wte
health industry in united kingdom,kingdom,Impact Health Limited,+44 20 8320 3820,www.impacth.co.uk,"info@target-healthcare.co.uk, enquiries@impact-models.co.uk, marketing@impact-workwear.co.uk",08456180036,https://www.linkedin.com/company/impact-health-limited,https://twitter.com/impact_uk_,https://www.facebook.com/impactsolutions16,https://www.instagram.com/impactfoundation_uk
health industry in united kingdom,kingdom,HealthCare International Group (HCI Group),+44 20 7590 8800,www.healthcareinternational.com,"enquiries@healthcareinternational.com, claims@healthcareinternational.com, francis@healthcareinternational.com, hci@euro-center.com","4402075908800, 4402075908816, 4402039064000, 66025690118",https://www.linkedin.com/company/hcigroupglobal,https://twitter.com/hciglobalgroup,https://www.facebook.com/HealthCareInternationalGroup,https://www.instagram.com/hcigroup_global
health industry in united kingdom,kingdom,UnitedHealthcare Global,+44 20 3907 4920,www.uhcglobal.com,"expatinsurance_memberservices@uhcglobal.com, assistance@uhcglobal.com, assistance_privacy@uhcglobal.com, gmprivacy@uhcglobal.com, uhcginsprovider@uhcglobal.com, euprivacy@uhcglobal.com, global_info@uhcglobal.com, manpower@uhcglobal.com, gmsales@uhcglobal.com, david.gullino@uhcglobal.com, intelligence@uhcglobal.com, brent.judge@uhcglobal.com, rebecca.d.miller@uhcglobal.com, erika.rogers@uhcglobal.com, greg.ruggiero@uhcglobal.com, louis_fried@uhcglobal.com, contactus@uhcgfze.com, uhg_privacy_office@uhg.com, clinicalresourcing@uhcglobal.com, info@solaceglobal.com, uhg_privacy_office@uhc.com, mailbox@uhcgfze.com, admin@solaceglobal.com, enquiries@medekit.com, legalmail@uhg.com","18443867491, 18005270218, 14104536330, 4401594545115, 8772776096, 4401594545100",https://www.linkedin.com/company/uhcglobal,https://twitter.com/UHC4Communities,https://www.facebook.com/UnitedHealthcare,https://www.instagram.com/tiffanyniyasia
health industry in united kingdom,kingdom,Besins Healthcare UK Ltd,+44 20 3862 0920,besinshealthcare.co.uk,"information@besins-healthcare.com, wendy@bb-healthcare.co.uk, info@sure-healthcare.co.uk, jobs@nightingale-healthcare.co.uk, besins@eu.propharmagroup.com, dataprivacyuk@besins-healthcare.com",442038620920,https://www.linkedin.com/company/besins-healthcare-uk,,https://www.facebook.com/p/Besins-Healthcare-61551373923068,https://www.instagram.com/besins.healthcare
health industry in united kingdom,kingdom,Healthcare Business International,+44 20 7183 3779,www.healthcarebusinessinternational.com,"info@healthcarebusinessinternational.com, memberships@healthcarebusinessinternational.com, geoffrey@healthcarebusinessinternational.com, max@healthcarebusinessinternational.com, thomas@healthcarebusinessinternational.com, conference@healthcarebusinessinternational.com, lee@healthcarebusinessinternational.com, david@healthcarebusinessinternational.com, joe@healthcarebusinessinternational.com, jobs@healthcarebusinessinternational.com, michaila@healthcarebusinessinternational.com, martin@healthcarebusinessinternational.com, conference@healhtcarebusinessinternational.com, gino@myguysolutions.com, contact@investorsforhealth.com","4402071833779, 02071833779, 0044207183377",https://www.linkedin.com/company/healthcare-business-international,https://twitter.com/HBIntl,https://www.facebook.com/HealthcareBusinnessInternational,https://www.instagram.com/bw_healthcareworld
health industry in united kingdom,kingdom,UK Healthcare,+44 1204 522775,www.ukhealthcare.org.uk,"info@ukhealthcare.org.uk, d.grimshaw@ukhealthcare.org.uk, s.leathley@ukhealthcare.org.uk, corporate@ukhealthcare.org.uk, dpo@westfieldhealth.com, d.grimshaw@ukhealthcare.org, s.leathley@ukhealthcare.org","01204522775, 07808783490, 03456123861, 4402038589094, 08001076585",https://www.linkedin.com/company/uk-healthcare,https://twitter.com/ukhealthcareorg,,https://www.instagram.com/ukhealthcare
health industry in united kingdom,kingdom,UK Healthcare Chairs,+44 330 134 0284,www.ukhealthcarechairs.co.uk,office@ukhealthcarechairs.co.uk,"03301340284, 03301340285",https://www.linkedin.com/company/university-of-kentucky-healthcare,,https://www.facebook.com/ukhealthcarechairs,
health industry in united kingdom,kingdom,Health Care Products,+44 1332 208615,www.thesweetenercompany.co.uk,"susan@earthisland.co.uk, michelle@thesweetconecompany.co.uk",+44 1332 208615,https://www.linkedin.com/in/sue-jenkins-22045982,,,
health industry in united kingdom,kingdom,Healthcare Business Information Ltd,+44 121 633 0044,www.healthcareinformation.co.uk,enquiries@healthcareinformation.co.uk,+44 121 633 0044,https://www.linkedin.com/in/jag-oubhie-6aa26022,https://twitter.com/PHIN_UK,https://www.facebook.com/HIFAdotORG,https://www.instagram.com/supportinghealthcareheroesuk
health industry in united kingdom,kingdom,Ultimate Healthcare,+44 333 321 8996,ultimatehealthcare.co.uk,"sales@ultimatehealthcare.co.uk, enquiries@ultimatehealthcare.co.uk, info@ultimatehealthcare.co.uk, producttrial@ultimatehealthcare.co.uk, chris.dawson@ultimatehealthcare.co.uk",03333218996,https://www.linkedin.com/company/ultimate-healthcare,https://twitter.com/ult_healthcare,https://www.facebook.com/ultimatehealthcareltd,https://www.instagram.com/ultimatehealthcarespecialists
health industry in united kingdom,kingdom,"Healthscreen UK Ltd, Occupational Health Providers",+44 1455 243700,www.healthscreenuk.co.uk,"admin@healthscreenuk.co.uk, michelle@healthscreenuk.co.uk, admin@healthscreenuk.co","01455243700, 01455234600, 01133230907",https://www.linkedin.com/company/healthscreen-united-kingdom,https://twitter.com/DHSCgovuk,https://www.facebook.com/HEALTHSCREENUK,https://www.instagram.com/healthscreenuk
health industry in united kingdom,kingdom,HCE UK (Health-Care Equipment & Supplies),+44 1784 220400,www.hce-uk.com,"sales@hce-uk.com, rajs@hce-uk.com, help@hce-uk.com, isocertificates@citation.co.uk, zaid@hceuk.com",01784220400,https://www.linkedin.com/company/health-care-equipment-and-supplies,https://twitter.com/hceuk,https://www.facebook.com/HCEUK,https://www.instagram.com/hceuk
health industry in united kingdom,kingdom,City Healthcare Direct,+44 115 976 0760,www.cityhealthcare.co.uk,info@cityhealthcare.co.uk,08005424009,https://www.linkedin.com/company/city-healthcare-direct-limited,https://twitter.com/markfilby,https://www.facebook.com/cityhealthcaredirect,https://www.instagram.com/cityhealthcaresolutions
health industry in united kingdom,kingdom,Medelit UK - Home & Online Healthcare Services,,www.medelit.com,"info@medelit.com, corporate@medelit.com, prenotazioni@medelit.com, hr@medelit.com, info@yourdomain.com","390287366070, 02036375657, 390697635353",https://www.linkedin.com/company/medelit-ltd,https://twitter.com/medelituk,https://www.facebook.com/medelituk,https://www.instagram.com/medelitegroup
health industry in united kingdom,kingdom,Lupin Healthcare UK,+44 1565 751378,www.lupinhealthcare.co.uk,"eu-pv@lupin.com, information@lupin.com, ukrespiratory@lupin.com, ukorders@lupin.com, ukmedia@lupin.com, ukrecruitment@lupin.com, dpo@lupin.com, info@carbonfootprint.com, allogauk.orders@alloga.co.uk, mathewduggan@lupin.com, lupin-uk@iqvia.com, lupin@hotmail.co.uk","4401565751378, 01565751378",https://www.linkedin.com/company/lupin-healthcare,,https://www.facebook.com/LupinWorld,
health industry in united kingdom,kingdom,Chugai Pharma (UK) Ltd,+44 20 8987 5680,www.chugai.eu,"compliance@chugai-pharm.co.uk, compliance@chugaipharma.de, compliance-cpf@chugai-pharm.fr, pv@chugai-pharm.co.uk, dataprotection@chugai-pharm.co.uk, disclosure@chugai-pharm.co.uk",4402089875600,https://www.linkedin.com/company/chugai-pharma-europe-ltd,https://twitter.com/ChugaiEurope,https://www.facebook.com/teamcpr.sg,https://www.instagram.com/katerina.chugai
health industry in united kingdom,kingdom,MWK Healthcare Ltd,+44 1691 664243,www.mwkhealthcare.co.uk,info@mwkhealthcare.co.uk,+44 1691 664243,https://www.linkedin.com/company/mwk-healthcare-limited,https://twitter.com/healthcaremwk,https://www.facebook.com/mark.keeling.9655,https://www.instagram.com/mwkhealthcare
health industry in united kingdom,kingdom,Reckitt Benckiser Health Care UK Ltd,+44 1482 326151,www.rb.com,"pharmacovigilance.ro@rb.com, suzanne.grogan@rb.com, arisa.pipatwattana@rb.com, info@rbitaliablog.com, ralphbiss1@yahoo.com, leontankk@hotmail.com, rblimo01@gmail.com, casting@rb-prod.com",+44 1482 326151,https://www.linkedin.com/company/reckitt,https://twitter.com/talentrb,https://www.facebook.com/ThisIsReckitt,https://www.instagram.com/rbraidi
health industry in united kingdom,kingdom,Richardsons Healthcare,+44 151 922 6511,richardsonsltd.co.uk,"contact@richardsonsltd.co.uk, info@richardsonsltd.co.uk, enquiries@richardsons-estates.co.uk, nick@richardson-ford.co.uk, me@shelley-richardson.co.uk, stuart@richardson-ford.co.uk, salesteam@richardson-ford.co.uk, alison@richardson-ford.co.uk, sales@richardsons-retail.co.uk, sales@richardson-designs.com, therichardsonstravel@outlook.com, michael@factionmusic.ie, ken@factionmusic.ie","4401519226511, 4401519441426",https://www.linkedin.com/company/richardsons-healthcare-ltd,https://twitter.com/richardsonsltd,,https://www.instagram.com/richardsonhealthcare
health industry in united kingdom,kingdom,Accord-UK Ltd,+44 1271 385200,www.accord-healthcare.co.uk,"medinfo@accord-healthcare.com, infohungary@accord-healthcare.com, usinfo@accord-healthcare.com",4401271385257,https://www.linkedin.com/company/accord-healthcare,,https://www.facebook.com/pages/Accord-Healthcare-Ltd-UK/1055463467861453,https://www.instagram.com/accordcare
health industry in united kingdom,kingdom,The Healthcare Warehouse Limited,,healthcarewarehouse.co.uk,"info@healthcarewarehouse.co.uk, ruilan.wu@healthcarewarehouse.co.uk, info@sure-healthcare.co.uk, recruitment@nugen-healthcare.co.uk, info@space-healthcare.co.uk, info@window-warehouse.co.uk, info@the-warehouse.co.uk, info@lockshop-warehouse.co.uk, info@fairhaven-healthcare.co.uk, louise.batchelor@fairhaven-healthcare.co.uk, warehouse@martinhouse.org.uk",,https://www.linkedin.com/company/the-healthcare-warehouse-limited,https://twitter.com/MB_Healthcare,https://www.facebook.com/TargetHealthcareLimited,https://www.instagram.com/healthwarehouse
health industry in united kingdom,kingdom,ProductLife UK,+44 1223 402660,www.productlifegroup.com,"info@productlife-group.com, italy@productlife-group.com, abouabidi@productlife-group.com, gbreda@productlife-group.com, sales@productlifegoup.com, plgcommunication@productlife-group.com","18558058402, 330141442211, 4902129530155",https://www.linkedin.com/company/productlifegroup,https://twitter.com/plg_eu,https://www.facebook.com/p/ProductLife-Group-100075910677184,https://www.instagram.com/trialkeyai
health industry in united kingdom,kingdom,Northern Healthcare Ltd,+44 161 974 7210,www.northernhealthcare.org.uk,"contact@northernhealthcare.org.uk, info@northernhealthcare.org.uk, amanda.newton@northernhealthcare.org.uk, recruitment@northernhealthcare.org.uk, referrals@northernhealthcare.org.uk, jo@samaritans.org, feedback@northernhealthcare.org.uk, branch@hda.org.uk, developments@northernhealthcare.org.uk, kevingournay@aol.com, help@beateatingdisorders.org.uk, info@contact.org.uk, info@carers4pd.co.uk, jo@samaritans.org.uk","01619747210, 08088020133",https://www.linkedin.com/company/northern-healthcare-limited,https://twitter.com/Northern_HC,https://www.facebook.com/NorthernHealthcareLtd,https://www.instagram.com/northernhealthcare
health industry in united kingdom,kingdom,Independent Health Care Solutions Ltd,+44 1274 693020,www.ihcs.co.uk,"info@ihcs.co.uk, pnielsen@ihcs.co.uk, jim@ihcs.co.uk, nora@ihcs.co.uk, fiona@ihcs.co.uk","01274693020, 07855782046, 07595466473",https://www.linkedin.com/company/independent-health-care-solutions,https://twitter.com/ihcshealthcare,https://www.facebook.com/independenthealthcare,https://www.instagram.com/ihcsprograms
health industry in united kingdom,kingdom,Healthwest UK Ltd,+44 7376 553682,www.healthwest.uk,"sales@healthwest.uk, lee@healthwest.uk, info@healthwest.com.au",61412906699,https://www.linkedin.com/company/healthwest-pcn,https://twitter.com/peoplehealthwe,https://www.facebook.com/HealthwestUK,https://www.instagram.com/healthwestuk
health industry in united kingdom,kingdom,UK Healthcare Support Ltd,+44 20 8050 2850,www.ukhealthcaresupport.com,"info@sencare.com, info@ukhealthcaresupport.com, hr@ukhealthcaresupport.com","02080502850, 0208050285002",,https://twitter.com/ukhealthcarepay,https://www.facebook.com/61550766013128,https://www.instagram.com/ukhealthcaresupport
health industry in united kingdom,kingdom,Novartis Pharmaceuticals UK,+44 1276 692255,www.novartis.com,"novartis.email@novartis.com, media.relations@novartis.com, grants.office@novartis.com, medinfo.phauno@novartis.com, mediji.si@novartis.com, drug_safety.egypt@novartis.com, medinfo.uk@novartis.com, global.privacy_office@novartis.com, communications.switzerland@novartis.com, medinfo.gtx@novartis.com, vaishali.iyer@novartis.com, zaposlitev.si@novartis.com, inovativna.zdravila@novartis.com, usdrugsafety.operations@novartis.com, medinfoemea.gtx@novartis.com, india.investors@novartis.com, share.registry@novartis.com, rtp.customercare@novartis.com, investor.relations@novartis.com, aditi.roy@novartis.com, info.dublin@novartis.com, gtx.info@novartis.com, business.practicesofficer@novartis.com, speakup@novartis.com, eprm.support@novartis.com, eg-corporate.communications@novartis.com, ethicscompliance.support@novartis.com, joseph.cabe@novartis.com, kenneth.wagner@novartis.com, sic.novartis@novartis.com, imspvo.sgmy@novartis.com, live.magazine@novartis.com, medinfoapac.gtx@novartis.com, medinfo.canada@novartis.com, medinfolacan.gtx@novartis.com, info.cz@novartis.com, medinfo.ph@novartis.com, grants.brasil@novartis.com, medicalinfo.spain@novartis.com, us.reasonableaccommodations@novartis.com, xxx@novartis.com, svetlana.pinto@novartis.com, step_up.portugal@novartis.com, eh.occupationalhealth@novartis.com.novartis, kamalax_saraf@hotmail.com, rattana.tanutanomras@novartis.com, tharmalingam@novartis.com, nabila.chaabani@novartis.com, christine.fajardo@novartis.com, anamariagimenezarnau@gmail.com, user@example.com, prospectus_department@jefferies.com, young.talent@novartis.com, maja.podkrajsek@novartis.com, vesna.oblak@novartis.com, romana.verbic@novartis.com, biocamp.egypt@novartis.com, gonzalez_garcia@novartis.com, teng_luan.ng@novartis.com, safety@novartis.com, iiss_mr@arrakis.es, donotreply@cybergrants.com, emurdock@allervie.com, christenla@gmail.com, journalisthelp@thenewsmarket.com, stina.medlen@scri.com, anicolemccray@hotmail.com, chrysanthit@hotmail.com, evoting@nsdl.com, sales.endorsement@hi-precision.com.ph, sales@docusign.com, healthxchallengeseoul@gmail.com, ole.weis.bjerrum@regionh.dk, imunoalergocentrum@gmail.com, andreasweiss@email.com, ricard.meneu@gmail.com, jjartells@gmail.com, yan.lou@gmail.com, davejwood@gmail.com, cohen.ambriel@mayo.edu, rnt.helpdesk@linkintime.co.in, derek@statresearch.net, kdannelly@curcmb.com, anasri@advancedresearchfl.com, jdepue@nebraskacancer.com, ttogba@sonarcr.com, lillie.burkitt@scri.com, evega@emclinicaltrials.com, lmurphy@nebraskacancer.com, jramsey@flourishresearch.com, jennifer.hoseth@bamfhealth.com, mabeck@hogonc.com, danielhochstrasser@gmail.com, chelsea.runkle@scri.com, chelsea.waller@hcahealthcare.com, araceli.boan@bcm.com, tiffany.walas@ironwoodcrc.com, deann.wilson-sims@utahallergies.com, kellie.larsen@integrisok.com, f.hall@premier-neuro.com, a.casciato@dhr-rgv.com, jkam@apcoworldwide.com, jpoly@jindalgroup.com, ulrich.peter.knigge@regionh.dk, o.mongelli@regione.puglia.it, argidino@yahoo.com, biocamp.ph@gmail.com, renz.cb.so@gmail.com, a.lopezwbra@gmail.com, miraginsberg@gmail.com, sherryknoblock@gmail.com, mtracy@tvmedresearch.com, swarnnie@gmail.com, deniner64@gmail.com, rccarvalhosousa@gmail.com, epetersonptx@gmail.com, nursebonnie81@gmail.com, mailer@elasticemail.com, warnercarr@hotmail.com, indira@shareproservices.com, sharepro@shareproservices.com, mdpldc@yahoo.com, bhandaribankinliquidation@gmail.com, cirpdkinfra@gmail.com, jljain.ip@gmail.com, olawrie191b@gmail.com, profin.capita11@gmail.com, iginges@hotmail.com, alavi010@hotmail.com, sbjerge@hotmail.com, d387983@dadlnet.dk, sanjay.mukhedkar@yahoo.com, rikkekroman@gmail.com, simonfrancisthomsen@gmail.com, simonfrancisthoinsen@gmail.com, ainsworth.hannah@gmail.com, stefano.radaelli@scuolaimpresasociale.org, cittadinireattivi@gmail.com, prerakchoudhary@gmail.com, mirellamaturo@gmail.com, chiara.locorotondo@gmail.com, aloekke@gmail.com, connie.kristiansen@alk-abello.com, patrick_aouad@msn.com, alonsorocarafael@gmail.com, didacmauricio@gmail.com, mhada@gmail.com, amanda.mason-jones@york.ac.uk, amandajmasonjones@gmail.com","18002772254, 41613241111, 18338283947, 18886696682, 41613248001, 35315662364, 1800635202, 61298053555, 18664338000",https://www.linkedin.com/company/novartis,https://twitter.com/Novartis,https://www.facebook.com/novartis,https://www.instagram.com/novartis
health industry in united kingdom,kingdom,UK Instant Healthcare,+44 116 248 9574,www.instanthealthcareuk.com,help@instanthealthcareuk.com,03330144084,https://www.linkedin.com/company/instant-healthcare-uk,https://twitter.com/instantgoupuk,https://www.facebook.com/instanthealthcareuk,
health industry in united kingdom,kingdom,Indivior PLC,+44 1753 427900,www.indivior.com,"indiviormediacontacts@indivior.com, cosec@indivior.com, educationalgrants@indivior.com, privacy@indivior.com, patientsafetyfrance@indivior.com, patientsafetyrow@indivior.com, patientsafetyna@indivior.com, charitablecontributions@indivior.com, jason.thompson@indivior.com, compliance@indivior.com, investigationalstudies@indivior.com, investorrelations@indivior.com, coi_team@indivior.com, procurement@indivior.com, timothy.owens@indivior.com, kathryn.hudson@indivior.com, admincanada@indivior.com, tom.corran@indivior.com, cindy.cetani@indivior.com, france@indivior.com, copyrightagent@indivior.com, jean-philippe.marechal@indivior.com, help@sharegift.org, web.queries@computershare.com, support@steeprockinc.com, louise.hume@indivior.com, fiona.macdonald@indivior.com, allukglobaltransactionteam@computershare.co.uk, indivior@teneo.com, jpmorgan.adr@wellsfargo.com, jonathan.sibun@teneo.com, will.palfreryman@teneo.com","18045940836, 18778863828, 18777826966",https://www.linkedin.com/company/indivior,https://twitter.com/Indivior,https://www.facebook.com/pages/Indivior-Pharmaceuticals/1595849307343467,https://www.instagram.com/indivior_plc
health industry in united kingdom,kingdom,Hospital Direct (Marketing) Ltd.,+44 1588 640144,www.patient-handling.co.uk,"sales@hdigroup.co.uk, sales@hdigroup.co.uk.co.uk",4401588640144,https://www.linkedin.com/company/patient-handling,https://twitter.com/handlingpatient,https://www.facebook.com/patienthandlinguk,https://www.instagram.com/ukpatientcare
health industry in united kingdom,kingdom,Integrated Healthcare,+44 333 772 9165,ihealthcareltd.co.uk,info@ihealthcareltd.co.uk,"4403337729165, 03337729165",https://www.linkedin.com/in/drrakeshmba,https://twitter.com/lakesidehealth1,https://www.facebook.com/islandhealthcare,
health industry in united kingdom,kingdom,HealthcareBids,+44 20 3389 9341,healthcarebids.co.uk,"hello@healthcarebids.co.uk, info@mobile-foot-heath.co.uk, care@hrmhomecare.co.uk","02033899341, 02045722089",https://www.linkedin.com/company/healthcarebids,https://twitter.com/bid_support,https://www.facebook.com/firstcommunityhcNHS,https://www.instagram.com/healthbid
health industry in united kingdom,kingdom,HealthCare Direct Ltd,+44 20 8236 0060,www.healthcaredirect.co.uk,"sales@healthcaredirect.co.uk, sales@greyland.co.uk, info@drivedevilbiss.co.uk, sales@cleenol.co.uk, info@sidhil.com, b.appleyard@millbrook.co.uk, safety@selden.co.uk",02082360060,https://www.linkedin.com/company/healthcare-direct-ltd,https://twitter.com/hcaredirect,https://www.facebook.com/healthcaredirectltd,https://www.instagram.com/healthcare_direct_services
health industry in united kingdom,kingdom,UK Instant healthcare,+44 330 113 0073,www.instanthealthcareuk.com,help@instanthealthcareuk.com,03330144084,https://www.linkedin.com/company/instant-healthcare-uk,https://twitter.com/instantgoupuk,https://www.facebook.com/instanthealthcareuk,
health industry in united kingdom,kingdom,Boehringer Ingelheim UK and Ireland,+44 1344 424600,www.boehringer-ingelheim.com,"p2p.ph@boehringer-ingelheim.com, christine.jones@boehringer-ingelheim.com, s2p.ar@boehringer-ingelheim.com, john.doe@boehringer-ingelheim.com, jennifer.forsyth@boehringer-ingelheim.com, heidi.dewit-sommerfeld@boehringer-ingelheim.com, us.privacy@boehringer-ingelheim.com, emilio.erazo-fischer@boehringer-ingelheim.com, press@boehringer-ingelheim.com, pv_local_uk_ireland@boehringer-ingelheim.com, talentacquisition.rdg@boehringer-ingelheim.com, feda.kassem@boehringer-ingelheim.com, rebecca.mojsin@boehringer-ingelheim.com, medoncallmsl.gb@boehringer-ingelheim.com, bi.skies.ph@boehringer-ingelheim.com, harro.ten_wolde@boehringer-ingelheim.com, laurent.goby@boehringer-ingelheim.com, linda.ruckel@boehringer-ingelheim.com, tereza.urbankova@boehringer-ingelheim.com, ahcommunication@boehringer-ingelheim.com, ioannis.sapountzis@boehringer-ingelheim.com, sara.shamel@boehringer-ingelheim.com, katharina.barner@boehringer-ingelheim.com, namiko.yamashita@boehringer-ingelheim.com, takeshi.kono@boehringer-ingelheim.com, wansoo_1.kim@boehringer-ingelheim.com, adam.mudasyah@boehringer-ingelheim.com, nurul_ain_fatehah.abu_bakar.ext@boehringer-ingelheim.com, anisha.moring@boehringer-ingelheim.com, marcio.lasaro@boehringer-ingelheim.com, andrew.whittle@boehringer-ingelheim.com, christian.mieschendahl@boehringer-ingelheim.com, medicalinformationservice.rig@boehringer-ingelheim.com, medicalinformationservice.kau@boehringer-ingelheim.com, partneringforanimalhealth@boehringer-ingelheim.com, hello@boehringer-ingelheim.com, vincent.han@boehringer-ingelheim.com, june.hahn@boehringer-ingelheim.com, pv_local_saudi_arabia@boehringer-ingelheim.com, medinfo@bra.boehringer-ingelheim.com, kristine.christiansen@boehringer-ingelheim.com, arun.iyer@boehringer-ingelheim.com, ursula.fauth@boehringer-ingelheim.com, pv_local_ropu_mena@boehringer-ingelheim.com, pv_local_egypt@boehringer-ingelheim.com, pv_local_france@boehringer-ingelheim.com, peter.benz@boehringer-ingelheim.com, info.bas@boehringer-ingelheim.com, zrburchiefprivacyofficer@boehringer-ingelheim.com, pv_local_saudi_arabia@boehringeringelheim.com, sac.brasil@boehringer-ingelheim.com, info.vie@boehringer-ingelheim.com, 03-icons-base-default-info@2x.png, msdpolska@merck.com, emiliano.calvo@startmadrid.com, customer.service@curascript.com, info@seedmedicalpublishers.com, service@asdhealthcare.com, beatrizpmonteiro@gmail.com, bea.garciamorante@gmail.com, bi@cts-helpdesk.com, info@wcabp.com, sac.brasil@boehringeringelheim.com, pneumologie@ksa.ch, info@boehringer-ingelheim.de, recrutement@hapiconseil.com, jcapdevila@vhio.net, r.ohare@imperial.ac.uk, bello_kristiane@lilly.com, ank@zealandpharma.com, pharmacyenrollment@iqvia.com, farmaciaespecializada@aliviahealth.com, example@mail.com, journals.permissions@oup.com, cuserv@cardinalhealth.com, investors@zealandpharma.com, syylwu@live.cn, nippon@bitrialsupport.com, gbscomplianceandquality@boehringeringelheim.com, datarights@lilly.com, stefanokim@gmail.com, annakarin.mail@gmail.com, info@erstamedia.se, valen.gambardella@gmail.com, unitedstates@bitrialsupport.com, rx@dmspharma.com, media@zealandpharma.com, info@seedstm.com, nicolas_mirabaud@hotmail.com, chopravk@gmail.com, amderm@gmail.com, annons.dn@gmail.com, butlzih@gmail.com","18002430127, 18004599906, 2037916234, 18005426257, 18444732638, 12037985526, 4973515417617, 18005568317, 18668512827, 37129250480, 37068528596, 18772642440, 4961327714450, 4973515418634",https://www.linkedin.com/company/boehringer-ingelheim,https://twitter.com/Boehringer,https://www.facebook.com/BoehringerUS,https://www.instagram.com/boehringer_ingelheim
health industry in united kingdom,kingdom,HCE Medical Group,+44 1784 220400,www.hcemedicalgroup.com,"sapnac@hce-uk.com, sales@hce-uk.com, sales@shuttleworthmedical.co.uk",4401784220400,https://www.linkedin.com/company/hce-medical-group-limited,https://twitter.com/hcemedical,https://www.facebook.com/HCACare,https://www.instagram.com/eccmedicalgroup
health industry in united kingdom,kingdom,Indue Healthcare,+44 333 339 4189,induehealthcare.co.uk,"info@induehealthcare.co.uk, recruitment@induehealthcare.co.uk, timesheets@induehealthcare.co.uk, info@induehealthcare.co, recruitment@induehealthcare.co",03333394189,https://www.linkedin.com/company/indue-healthcare,https://twitter.com/IndueHealthcare,https://www.facebook.com/p/Indue-Healthcare-100076629740635,https://www.instagram.com/ihn_uk
health industry in united kingdom,kingdom,Indivior UK Limited,,www.indivior.com,"indiviormediacontacts@indivior.com, cosec@indivior.com, educationalgrants@indivior.com, privacy@indivior.com, patientsafetyfrance@indivior.com, patientsafetyrow@indivior.com, patientsafetyna@indivior.com, charitablecontributions@indivior.com, jason.thompson@indivior.com, compliance@indivior.com, investigationalstudies@indivior.com, investorrelations@indivior.com, coi_team@indivior.com, procurement@indivior.com, timothy.owens@indivior.com, kathryn.hudson@indivior.com, admincanada@indivior.com, tom.corran@indivior.com, cindy.cetani@indivior.com, france@indivior.com, copyrightagent@indivior.com, jean-philippe.marechal@indivior.com, help@sharegift.org, web.queries@computershare.com, support@steeprockinc.com, louise.hume@indivior.com, fiona.macdonald@indivior.com, allukglobaltransactionteam@computershare.co.uk, indivior@teneo.com, jpmorgan.adr@wellsfargo.com, jonathan.sibun@teneo.com, will.palfreryman@teneo.com","18045940836, 18778863828, 18777826966",https://www.linkedin.com/company/indivior,https://twitter.com/Indivior,https://www.facebook.com/pages/Indivior-Pharmaceuticals/1595849307343467,https://www.instagram.com/indivior_plc
health industry in united kingdom,kingdom,HCI - Health and Care Innovations Limited,+44 1626 833937,www.hci.digital,"info@hci.digital, ellen@hci.digital, dpo.hci-digital@kdpc.uk, natalie@hci.digital","03300531862, 01626833937",https://www.linkedin.com/company/hcitv,https://twitter.com/hcidigital,https://www.facebook.com/hci.tv,https://www.instagram.com/hci_digital
health industry in united kingdom,kingdom,City & County Healthcare Group Ltd,+44 20 7186 0518,candchealthcare.co.uk,"communications@candchealthcare.co.uk, enquiries@candchealthcare.co.uk, dataprotection@candchealthcare.co.uk, hse@candchealthcare.co.uk, modelbranch@candchealthcare.co.uk, covid19response@candchealthcare.co.uk, recruitment@grahamcare.co.uk, enquiries@candchealthcare.co, vaida.grybauskiene@candchealthcare.co.uk, caoimheshields@cdhn.org, referafriend@candchealthcare.co.uk, emma.snell@candchealthcare.co.uk, jo@samaritans.org, internationalrecruit@sevacare.org.uk, admin@mmarecruitment.com, emma.snell@candchealthcare.co","02071860518, 03331503456, 08001691920",,https://twitter.com/candchealthcare,https://www.facebook.com/CityandCountyHealthcare,https://www.instagram.com/candchealthcare
health industry in united kingdom,kingdom,Mountain Healthcare,+44 330 223 0099,www.mountainhealthcare.co.uk,"info@mountainhealthcare.co.uk, governance@mountainhealthcare.co.uk, comms@mountainhealthcare.co.uk, jobs@mountainhealthcare.co.uk, recruitment.coordinator@mountainhealthcare.co.uk, derbyshire.sarc@nhs.net, theglade.sarc@nhs.net, sarc.feedback@nhs.net, hello@matchstick.com.watch","03302230099, 4403302230099, 03302330099, 0330223009924, 03450154033",https://www.linkedin.com/company/mountain-healthcare,https://twitter.com/MountHealth,https://www.facebook.com/mountainhealthcareltd,
health industry in united kingdom,kingdom,Healthcare Distribution Association (HDA UK),+44 20 7031 0590,hdauk.com,"secretariat@hdauk.co.uk, mah@securmed.org.uk, fmd.safetyfeatures@mhra.gov.uk, jerome.bertin@securmed.org.uk, msawer@hdauk.co.uk, psc.su@nhs.net, wbrowne@hdauk.co.uk, info@securmed.org.uk, tom@clockworkartists.co.uk, chris@mintmgmt.co.uk.watch",+44 20 7031 0590,https://www.linkedin.com/company/healthcare-distribution-association-hda-uk,https://twitter.com/hdamartinsawer,https://www.facebook.com/hdauk,https://www.instagram.com/hdauk
health industry in united kingdom,kingdom,UK Health Data Research Alliance Secretariat,+44 20 3371 1393,ukhealthdata.org,"ukalliance@hdruk.ac.uk, enquiries@hdruk.ac.uk, claireargent@hotmail.com, yemi.macaulay@hdruk.ac.uk, alex.knight@hdruk.ac.uk, stephen.burrows@hdruk.ac.uk, paola.quattroni@hdruk.ac.uk, uwaye.ideh@hdruk.ac.uk, info@genomicsengland.co.uk, doreen.tembo@hdruk.ac.uk, mrclha.swiftinfo@ucl.ac.uk, david.seymour@hdruk.ac.uk, nbr@bioresource.nihr.ac.uk, datasharing@hqip.org.uk, hbs@hscni.net, comms@hdruk.ac, copyright@mhra.gov.uk, life.sciences@bartshealth.nhs.uk, enquiries@hdruk.ac, bhfdsc@hdruk.ac.uk, info@theprsb.org, michael.jones@icr.ac.uk, access@ukllc.ac.uk, info@ourfuturehealth.org.uk, contact@biobankinguk.org, nss.edris@nhs.net, clinicaldata.scienceunit@mft.nhs.uk, registry@cysticfibrosis.org.uk, access@ukbiobank.ac.uk, saildatabank@swansea.ac.uk, dataprotection@hdruk.ac.uk, blackinternprog@hdruk.ac.uk, alison.elderfield@hdruk.ac.uk, satre-contact@dundee.ac.uk, rachel.edwards@hdruk.ac.uk, sde.policy@dhsc.gov.uk, edel.mcnamara@hdruk.ac.uk, cassie.smith@hdruk.ac.uk, pat@papyrus-uk.org, southandy@gmail.com, training@vcf-uk.org, info@oasisofhope-uk.org, info@iwa-uk.org.uk",+44 20 3371 1393,,https://twitter.com/HDR_UK,https://www.facebook.com/UKHealthSecurityAgency,
health industry in united kingdom,kingdom,UK Instant Healthcare,+44 333 014 4084,www.instanthealthcareuk.com,help@instanthealthcareuk.com,03330144084,https://www.linkedin.com/company/instant-healthcare-uk,https://twitter.com/instantgoupuk,https://www.facebook.com/instanthealthcareuk,
health industry in united kingdom,kingdom,Biocompatibles Oncology,+44 1252 732732,btgplc.com,"careers@bythegram.co, btgdecor@gmail.com, contact@btg.art",18882721001,https://www.linkedin.com/company/btg,https://twitter.com/btg_art,https://www.facebook.com/BTGInc,https://www.instagram.com/by.the.gram
health industry in united kingdom,kingdom,ANP PHARMA LTD - Pharmaceutical Wholesalers UK,+44 20 8558 8886,www.anppharma.co.uk,"info@anppharma.co.uk, anp-info@wescom-group.com, info@wescom-group.com, info@mrtsos.com",4402085588886,https://www.linkedin.com/company/anp-pharma,https://twitter.com/anppharma,https://www.facebook.com/anppharma,https://www.instagram.com/anppharmauk
health industry in united kingdom,kingdom,UKIHMA office,+44 333 772 7314,ukihma.co.uk,"enquiries@ukihma.co.uk, membership@ukihma.co.uk, jenny.scott@ukihma.co.uk",4403337727314,https://www.linkedin.com/company/ukihma,https://twitter.com/theukihma,https://www.facebook.com/whiconsultingltd,https://www.instagram.com/ukihca
